{
  "type": "FeatureCollection",
  "features": [
    {
      "type": "Feature",
      "properties": {
        "norad_id": 66549,
        "name": "SHIJIAN-28 (SJ-28)",
        "group": "last-30-days",
        "lat": -1.1815887873012265,
        "lon": -98.4773211800431,
        "alt_km": 35791.03381775719,
        "timestamp": "2025-12-20T03:42:46.117987+00:00",
        "meta_object_name": "SHIJIAN-28 (SJ-28)",
        "meta_object_id": "2025-277A",
        "meta_epoch": "2025-12-19T20:28:56.276832",
        "meta_mean_motion": 1.00268445,
        "meta_eccentricity": 0.0001035,
        "meta_inclination": 5.0011,
        "meta_ra_of_asc_node": 274.8456,
        "meta_arg_of_pericenter": 136.7763,
        "meta_mean_anomaly": 101.1297,
        "meta_ephemeris_type": 0,
        "meta_classification_type": "U",
        "meta_norad_cat_id": 66549,
        "meta_element_set_no": 999,
        "meta_rev_at_epoch": 35,
        "meta_bstar": 0,
        "meta_mean_motion_dot": -3.3e-06,
        "meta_mean_motion_ddot": 0,
        "tle_line1": "1 66549U 25277A   25353.85342913 -.00000330  00000+0  00000+0 0  9991",
        "tle_line2": "2 66549   5.0011 274.8456 0001035 136.7763 101.1297  1.00268445   356"
      },
      "geometry": {
        "type": "Point",
        "coordinates": [
          -98.4773211800431,
          -1.1815887873012265
        ]
      }
    },
    {
      "type": "Feature",
      "properties": {
        "norad_id": 66550,
        "name": "CZ-7A R/B",
        "group": "last-30-days",
        "lat": 6.8418017203207055,
        "lon": -66.18429543064111,
        "alt_km": 26308.533641996455,
        "timestamp": "2025-12-20T03:42:46.118039+00:00",
        "meta_object_name": "CZ-7A R/B",
        "meta_object_id": "2025-277B",
        "meta_epoch": "2025-12-12T23:59:46.778208",
        "meta_mean_motion": 2.6999528,
        "meta_eccentricity": 0.7016509,
        "meta_inclination": 14.3834,
        "meta_ra_of_asc_node": 269.7494,
        "meta_arg_of_pericenter": 189.2862,
        "meta_mean_anomaly": 143.2073,
        "meta_ephemeris_type": 0,
        "meta_classification_type": "U",
        "meta_norad_cat_id": 66550,
        "meta_element_set_no": 999,
        "meta_rev_at_epoch": 35,
        "meta_bstar": 0.0022352,
        "meta_mean_motion_dot": 0.01783921,
        "meta_mean_motion_ddot": -2.5553e-07,
        "tle_line1": "1 66550U 25277B   25346.99984697  .01783921 -25553-6  22352-2 0  9990",
        "tle_line2": "2 66550  14.3834 269.7494 7016509 189.2862 143.2073  2.69995280   350"
      },
      "geometry": {
        "type": "Point",
        "coordinates": [
          -66.18429543064111,
          6.8418017203207055
        ]
      }
    },
    {
      "type": "Feature",
      "properties": {
        "norad_id": 66554,
        "name": "GLOBAL-33",
        "group": "last-30-days",
        "lat": -27.677935010611378,
        "lon": -21.44166302308987,
        "alt_km": 475.4619561298214,
        "timestamp": "2025-12-20T03:42:46.118067+00:00",
        "meta_object_name": "GLOBAL-33",
        "meta_object_id": "2025-267A",
        "meta_epoch": "2025-12-18T12:46:43.636800",
        "meta_mean_motion": 15.31616871,
        "meta_eccentricity": 0.00032005,
        "meta_inclination": 42.0244,
        "meta_ra_of_asc_node": 23.55,
        "meta_arg_of_pericenter": 137.3862,
        "meta_mean_anomaly": 222.7224,
        "meta_ephemeris_type": 0,
        "meta_classification_type": "U",
        "meta_norad_cat_id": 66554,
        "meta_element_set_no": 999,
        "meta_rev_at_epoch": 429,
        "meta_bstar": 0.00035788106,
        "meta_mean_motion_dot": 0.00010928,
        "meta_mean_motion_ddot": 0,
        "tle_line1": "1 66554U 25267A   25352.53244950  .00010928  00000+0  35788-3 0  9990",
        "tle_line2": "2 66554  42.0244  23.5500 0003200 137.3862 222.7224 15.31616871  4299"
      },
      "geometry": {
        "type": "Point",
        "coordinates": [
          -21.44166302308987,
          -27.677935010611378
        ]
      }
    },
    {
      "type": "Feature",
      "properties": {
        "norad_id": 66555,
        "name": "ELECTRON KICK STAGE R/B",
        "group": "last-30-days",
        "lat": 34.43372846760428,
        "lon": 63.52663077484071,
        "alt_km": 458.1809810456771,
        "timestamp": "2025-12-20T03:42:46.118079+00:00",
        "meta_object_name": "ELECTRON KICK STAGE R/B",
        "meta_object_id": "2025-267B",
        "meta_epoch": "2025-12-19T11:49:39.760320",
        "meta_mean_motion": 15.33119731,
        "meta_eccentricity": 0.00068053,
        "meta_inclination": 42.0196,
        "meta_ra_of_asc_node": 17.768,
        "meta_arg_of_pericenter": 108.2419,
        "meta_mean_anomaly": 251.916,
        "meta_ephemeris_type": 0,
        "meta_classification_type": "U",
        "meta_norad_cat_id": 66555,
        "meta_element_set_no": 999,
        "meta_rev_at_epoch": 444,
        "meta_bstar": 0.00057765404,
        "meta_mean_motion_dot": 0.00018691,
        "meta_mean_motion_ddot": 0,
        "tle_line1": "1 66555U 25267B   25353.49282130  .00018691  00000+0  57765-3 0  9993",
        "tle_line2": "2 66555  42.0196  17.7680 0006805 108.2419 251.9160 15.33119731  4444"
      },
      "geometry": {
        "type": "Point",
        "coordinates": [
          63.52663077484071,
          34.43372846760428
        ]
      }
    },
    {
      "type": "Feature",
      "properties": {
        "norad_id": 66557,
        "name": "STARLINK-35699",
        "group": "last-30-days",
        "lat": 26.180635665841958,
        "lon": -134.00910106648703,
        "alt_km": 410.5587278544717,
        "timestamp": "2025-12-20T03:42:46.118093+00:00",
        "meta_object_name": "STARLINK-35699",
        "meta_object_id": "2025-268A",
        "meta_epoch": "2025-12-19T13:12:05.651424",
        "meta_mean_motion": 15.50689057,
        "meta_eccentricity": 0.0002216,
        "meta_inclination": 43.0009,
        "meta_ra_of_asc_node": 81.3713,
        "meta_arg_of_pericenter": 38.1148,
        "meta_mean_anomaly": 321.9869,
        "meta_ephemeris_type": 0,
        "meta_classification_type": "U",
        "meta_norad_cat_id": 66557,
        "meta_element_set_no": 999,
        "meta_rev_at_epoch": 568,
        "meta_bstar": 0.00095065,
        "meta_mean_motion_dot": 0.00056051,
        "meta_mean_motion_ddot": 0,
        "tle_line1": "1 66557U 25268A   25353.55006541  .00056051  00000+0  95065-3 0  9990",
        "tle_line2": "2 66557  43.0009  81.3713 0002216  38.1148 321.9869 15.50689057  5689"
      },
      "geometry": {
        "type": "Point",
        "coordinates": [
          -134.00910106648703,
          26.180635665841958
        ]
      }
    },
    {
      "type": "Feature",
      "properties": {
        "norad_id": 66558,
        "name": "STARLINK-35695",
        "group": "last-30-days",
        "lat": 24.88725444292879,
        "lon": -132.024401882475,
        "alt_km": 411.58491097874776,
        "timestamp": "2025-12-20T03:42:46.118108+00:00",
        "meta_object_name": "STARLINK-35695",
        "meta_object_id": "2025-268B",
        "meta_epoch": "2025-12-19T13:11:35.879712",
        "meta_mean_motion": 15.50780077,
        "meta_eccentricity": 0.0002483,
        "meta_inclination": 43.0025,
        "meta_ra_of_asc_node": 81.3711,
        "meta_arg_of_pericenter": 320.1959,
        "meta_mean_anomaly": 39.8719,
        "meta_ephemeris_type": 0,
        "meta_classification_type": "U",
        "meta_norad_cat_id": 66558,
        "meta_element_set_no": 999,
        "meta_rev_at_epoch": 568,
        "meta_bstar": 0.0027699,
        "meta_mean_motion_dot": 0.00166863,
        "meta_mean_motion_ddot": 0,
        "tle_line1": "1 66558U 25268B   25353.54972083  .00166863  00000+0  27699-2 0  9993",
        "tle_line2": "2 66558  43.0025  81.3711 0002483 320.1959  39.8719 15.50780077  5689"
      },
      "geometry": {
        "type": "Point",
        "coordinates": [
          -132.024401882475,
          24.88725444292879
        ]
      }
    },
    {
      "type": "Feature",
      "properties": {
        "norad_id": 66559,
        "name": "STARLINK-35419",
        "group": "last-30-days",
        "lat": 22.909550268453707,
        "lon": -129.1465336314741,
        "alt_km": 406.77615721624534,
        "timestamp": "2025-12-20T03:42:46.118120+00:00",
        "meta_object_name": "STARLINK-35419",
        "meta_object_id": "2025-268C",
        "meta_epoch": "2025-12-19T14:43:49.916352",
        "meta_mean_motion": 15.51059547,
        "meta_eccentricity": 9.48e-05,
        "meta_inclination": 43.002,
        "meta_ra_of_asc_node": 80.9906,
        "meta_arg_of_pericenter": 203.8575,
        "meta_mean_anomaly": 156.2241,
        "meta_ephemeris_type": 0,
        "meta_classification_type": "U",
        "meta_norad_cat_id": 66559,
        "meta_element_set_no": 999,
        "meta_rev_at_epoch": 569,
        "meta_bstar": 0.015314,
        "meta_mean_motion_dot": 0.01003316,
        "meta_mean_motion_ddot": 0,
        "tle_line1": "1 66559U 25268C   25353.61377218  .01003316  00000+0  15314-1 0  9995",
        "tle_line2": "2 66559  43.0020  80.9906 0000948 203.8575 156.2241 15.51059547  5698"
      },
      "geometry": {
        "type": "Point",
        "coordinates": [
          -129.1465336314741,
          22.909550268453707
        ]
      }
    }
  ]
}